NAVSTAR 77 (USA 289)    
1 43873U 18109A   24056.35724466  .00000013  00000+0  00000+0 0  9990
2 43873  55.2516 125.4863 0028880 194.4226 128.9774  2.00574541 38168
